NORAD_CAT_ID,OBJECT_NAME,OBJECT_TYPE,EPOCH,MEAN_MOTION,ECCENTRICITY,INCLINATION,RA_OF_ASC_NODE,ARG_OF_PERICENTER,MEAN_ANOMALY,BSTAR,MEAN_MOTION_DOT,MEAN_MOTION_DDOT,TLE_LINE0,TLE_LINE1,TLE_LINE2,SEMIMAJOR_AXIS,PERIOD,APOGEE,PERIGEE,DECAYED
51741.0,STARLINK-3520,PAYLOAD,2023-11-10 07:38:16,15.08858542,0.0001478,53.2159,176.6004,84.6784,275.4377,0.00091007,0.00014233,0.0,0 STARLINK-3520,1 51741U 22016AD  23314.31825186  .00014233  00000-0  91007-3 0  9999,2 51741  53.2159 176.6004 0001478  84.6784 275.4377 15.08858542 96293,6917.824,95.436,540.711,538.666,0.0
51741.0,STARLINK-3520,PAYLOAD,2023-11-10 20:21:21,15.08850774,0.0001265,53.2159,174.2206,97.7966,262.317,0.00065623,0.00010174,0.0,0 STARLINK-3520,1 51741U 22016AD  23314.84816878  .00010174  00000-0  65623-3 0  9990,2 51741  53.2159 174.2206 0001265  97.7966 262.3170 15.08850774 96376,6917.847,95.437,540.588,538.837,0.0
51741.0,STARLINK-3520,PAYLOAD,2023-11-10 21:56:44,15.08848698,0.0001321,53.2159,173.9226,104.5215,255.5924,0.00050549,7.768e-05,0.0,0 STARLINK-3520,1 51741U 22016AD  23314.91440834  .00007768  00000-0  50549-3 0  9999,2 51741  53.2159 173.9226 0001321 104.5215 255.5924 15.08848698 95272,6917.854,95.437,540.633,538.805,0.0
51741.0,STARLINK-3520,PAYLOAD,2023-11-11 20:12:08,15.08841232,0.0001244,53.2147,169.7607,105.9357,254.1772,2.8169e-05,1.6e-06,0.0,0 STARLINK-3520,1 51741U 22016AD  23315.84177038  .00000160  00000-0  28169-4 0  9998,2 51741  53.2147 169.7607 0001244 105.9357 254.1772 15.08841232 96523,6917.877,95.437,540.602,538.881,0.0
51741.0,STARLINK-3520,PAYLOAD,2023-11-11 21:47:32,15.08840312,0.0001283,53.2149,169.4632,108.6457,251.4674,-5.8601e-05,-1.22e-05,0.0,0 STARLINK-3520,1 51741U 22016AD  23315.90801035 -.00001220  00000-0 -58601-4 0  9990,2 51741  53.2149 169.4632 0001283 108.6457 251.4674 15.08840312 95421,6917.879,95.438,540.632,538.857,0.0
51741.0,STARLINK-3520,PAYLOAD,2023-11-12 07:19:50,15.08841888,0.0001179,53.2151,167.6788,97.1636,262.9491,4.0964e-05,3.64e-06,0.0,0 STARLINK-3520,1 51741U 22016AD  23316.30545072  .00000364  00000-0  40964-4 0  9990,2 51741  53.2151 167.6788 0001179  97.1636 262.9491 15.08841888 95480,6917.875,95.437,540.555,538.924,0.0
51741.0,STARLINK-3520,PAYLOAD,2023-11-12 21:38:19,15.08844899,0.0001224,53.2153,165.002,90.6002,269.5131,0.00013224,1.818e-05,0.0,0 STARLINK-3520,1 51741U 22016AD  23316.90161055  .00001818  00000-0  13224-3 0  9994,2 51741  53.2153 165.0020 0001224  90.6002 269.5131 15.08844899 95578,6917.865,95.437,540.577,538.884,0.0
51741.0,STARLINK-3520,PAYLOAD,2023-11-12 23:13:42,15.08845266,0.0001227,53.2153,164.7044,89.3579,270.7554,0.00013079,1.795e-05,0.0,0 STARLINK-3520,1 51741U 22016AD  23316.96785021  .00001795  00000-0  13079-3 0  9997,2 51741  53.2153 164.7044 0001227  89.3579 270.7554 15.08845266 96693,6917.864,95.437,540.578,538.88,0.0
51741.0,STARLINK-3520,PAYLOAD,2023-11-13 13:32:10,15.08843109,0.000128,53.215,162.0283,87.5588,272.5551,0.00016051,2.268e-05,0.0,0 STARLINK-3520,1 51741U 22016AD  23317.56401152  .00002268  00000-0  16051-3 0  9993,2 51741  53.2150 162.0283 0001280  87.5588 272.5551 15.08843109 95673,6917.871,95.437,540.621,538.85,0.0
51741.0,STARLINK-3520,PAYLOAD,2023-11-13 19:53:43,15.08843393,0.0001288,53.2151,160.8386,87.8266,272.2874,0.00014887,2.082e-05,0.0,0 STARLINK-3520,1 51741U 22016AD  23317.82897140  .00002082  00000-0  14887-3 0  9997,2 51741  53.2151 160.8386 0001288  87.8266 272.2874 15.08843393 95713,6917.87,95.437,540.626,538.844,0.0
51741.0,STARLINK-3520,PAYLOAD,2023-11-14 13:22:57,15.08840231,0.0001333,53.2147,157.5675,86.7558,273.3587,5.3804e-05,5.68e-06,0.0,0 STARLINK-3520,1 51741U 22016AD  23318.55761294  .00000568  00000-0  53804-4 0  9998,2 51741  53.2147 157.5675 0001333  86.7558 273.3587 15.08840231 95828,6917.88,95.438,540.667,538.823,0.0
51741.0,STARLINK-3520,PAYLOAD,2023-11-15 13:13:44,15.08842072,0.0001373,53.2129,153.1056,89.1418,270.9732,8.6367e-05,1.087e-05,0.0,0 STARLINK-3520,1 51741U 22016AD  23319.55121188  .00001087  00000-0  86367-4 0  9998,2 51741  53.2129 153.1056 0001373  89.1418 270.9732 15.08842072 95975,6917.874,95.437,540.689,538.789,0.0
51741.0,STARLINK-3520,PAYLOAD,2023-11-16 19:26:04,15.08843335,0.0001249,53.2161,147.4567,88.4279,271.6856,5.5763e-05,6e-06,0.0,0 STARLINK-3520,1 51741U 22016AD  23320.80976942  .00000600  00000-0  55763-4 0  9990,2 51741  53.2161 147.4567 0001249  88.4279 271.6856 15.08843335 97276,6917.87,95.437,540.599,538.871,0.0
51741.0,STARLINK-3520,PAYLOAD,2023-11-17 11:19:56,15.08835999,0.0001333,53.2157,144.4827,87.5506,272.5639,-9.1858e-06,-4.34e-06,0.0,0 STARLINK-3520,1 51741U 22016AD  23321.47217593 -.00000434  00000-0 -91858-5 0  9997,2 51741  53.2157 144.4827 0001333  87.5506 272.5639 15.08835999 97371,6917.893,95.438,540.68,538.835,0.0
51741.0,STARLINK-3520,PAYLOAD,2023-11-17 19:16:51,15.08834901,0.0001396,53.2146,142.9945,87.1864,272.9288,-3.4554e-06,-3.43e-06,0.0,0 STARLINK-3520,1 51741U 22016AD  23321.80337820 -.00000343  00000-0 -34554-5 0  9999,2 51741  53.2146 142.9945 0001396  87.1864 272.9288 15.08834901 96314,6917.896,95.438,540.727,538.795,0.0
51741.0,STARLINK-3520,PAYLOAD,2023-11-18 11:10:43,15.08831619,0.0001432,53.215,140.0202,85.0477,275.0678,7.305e-05,8.75e-06,0.0,0 STARLINK-3520,1 51741U 22016AD  23322.46577947  .00000875  00000-0  73050-4 0  9999,2 51741  53.2150 140.0202 0001432  85.0477 275.0678 15.08831619 96413,6917.906,95.438,540.762,538.78,0.0
51741.0,STARLINK-3520,PAYLOAD,2023-11-18 19:07:38,15.08836088,0.0001436,53.2146,138.5337,86.2706,273.845,9.4767e-05,1.22e-05,0.0,0 STARLINK-3520,1 51741U 22016AD  23322.79697726  .00001220  00000-0  94767-4 0  9996,2 51741  53.2146 138.5337 0001436  86.2706 273.8450 15.08836088 97578,6917.892,95.438,540.751,538.764,0.0
51741.0,STARLINK-3520,PAYLOAD,2023-11-19 04:39:57,15.08836823,0.0001432,53.2144,136.7495,86.0046,274.111,9.0198e-05,1.148e-05,0.0,0 STARLINK-3520,1 51741U 22016AD  23323.19441820  .00001148  00000-0  90198-4 0  9996,2 51741  53.2144 136.7495 0001432  86.0046 274.1110 15.08836823 96520,6917.89,95.438,540.746,538.764,0.0
51741.0,STARLINK-3520,PAYLOAD,2023-11-19 20:33:48,15.08841941,0.0001343,53.2162,133.7768,90.082,270.0326,0.00013428,1.85e-05,0.0,0 STARLINK-3520,1 51741U 22016AD  23323.85681423  .00001850  00000-0  13428-3 0  9994,2 51741  53.2162 133.7768 0001343  90.0820 270.0326 15.08841941 96628,6917.874,95.437,540.669,538.81,0.0
51741.0,STARLINK-3520,PAYLOAD,2023-11-19 23:44:34,15.0884422,0.0001328,53.2162,133.1821,90.0972,270.0172,0.00014113,1.959e-05,0.0,0 STARLINK-3520,1 51741U 22016AD  23323.98929264  .00001959  00000-0  14113-3 0  9998,2 51741  53.2162 133.1821 0001328  90.0972 270.0172 15.08844220 97750,6917.867,95.437,540.651,538.814,0.0
51741.0,STARLINK-3520,PAYLOAD,2023-11-20 04:30:44,15.08841221,0.0001356,53.2158,132.2895,88.1004,272.0143,0.00011315,1.513e-05,0.0,0 STARLINK-3520,1 51741U 22016AD  23324.18801610  .00001513  00000-0  11315-3 0  9992,2 51741  53.2158 132.2895 0001356  88.1004 272.0143 15.08841221 96679,6917.877,95.437,540.68,538.804,0.0
51741.0,STARLINK-3520,PAYLOAD,2023-11-20 18:49:12,15.08843037,0.0001355,53.2166,129.6134,88.5999,271.5149,7.5896e-05,9.2e-06,0.0,0 STARLINK-3520,1 51741U 22016AD  23324.78417582  .00000920  00000-0  75896-4 0  9995,2 51741  53.2166 129.6134 0001355  88.5999 271.5149 15.08843037 97870,6917.871,95.437,540.673,538.799,0.0
51741.0,STARLINK-3520,PAYLOAD,2023-11-21 10:43:04,15.08843991,0.0001382,53.2168,126.6401,89.0592,271.0558,4.9607e-05,5.02e-06,0.0,0 STARLINK-3520,1 51741U 22016AD  23325.44657507  .00000502  00000-0  49607-4 0  9999,2 51741  53.2168 126.6401 0001382  89.0592 271.0558 15.08843991 96867,6917.868,95.437,540.689,538.777,0.0
51741.0,STARLINK-3520,PAYLOAD,2023-11-21 17:04:36,15.08846843,0.0001369,53.2168,125.4507,88.6745,271.4404,4.7308e-05,4.65e-06,0.0,0 STARLINK-3520,1 51741U 22016AD  23325.71153274  .00000465  00000-0  47308-4 0  9995,2 51741  53.2168 125.4507 0001369  88.6745 271.4404 15.08846843 96909,6917.859,95.437,540.672,538.777,0.0
51741.0,STARLINK-3520,PAYLOAD,2023-11-22 10:33:50,15.08843955,0.0001329,53.2167,122.1802,87.388,272.7265,8.9025e-05,1.129e-05,0.0,0 STARLINK-3520,1 51741U 22016AD  23326.44017224  .00001129  00000-0  89025-4 0  9990,2 51741  53.2167 122.1802 0001329  87.3880 272.7265 15.08843955 98128,6917.868,95.437,540.653,538.814,0.0
51741.0,STARLINK-3520,PAYLOAD,2023-11-22 16:55:23,15.08848279,0.0001401,53.2168,120.991,86.3452,273.77,0.00011558,1.552e-05,0.0,0 STARLINK-3520,1 51741U 22016AD  23326.70512846  .00001552  00000-0  11558-3 0  9994,2 51741  53.2168 120.9910 0001401  86.3452 273.7700 15.08848279 97050,6917.855,95.437,540.689,538.751,0.0
51741.0,STARLINK-3520,PAYLOAD,2023-11-23 10:24:38,15.08839685,0.0001782,53.2174,117.7225,79.7145,280.4048,-1.3079e-05,-4.96e-06,0.0,0 STARLINK-3520,1 51741U 22016AD  23327.43377870 -.00000496  00000-0 -13079-4 0  9990,2 51741  53.2174 117.7225 0001782  79.7145 280.4048 15.08839685 98273,6917.881,95.438,540.979,538.514,0.0
51741.0,STARLINK-3520,PAYLOAD,2023-11-23 13:35:24,15.08835344,0.0001655,53.2177,117.1259,92.6366,267.4816,-4.1659e-05,-9.51e-06,0.0,0 STARLINK-3520,1 51741U 22016AD  23327.56626110 -.00000951  00000-0 -41659-4 0  9999,2 51741  53.2177 117.1259 0001655  92.6366 267.4816 15.08835344 97180,6917.895,95.438,540.905,538.615,0.0
51741.0,STARLINK-3520,PAYLOAD,2023-11-23 16:46:11,15.08834287,0.0001485,53.2182,116.5307,102.2409,257.8749,-1.3873e-05,-5.09e-06,0.0,0 STARLINK-3520,1 51741U 22016AD  23327.69874048 -.00000509  00000-0 -13873-4 0  9994,2 51741  53.2182 116.5307 0001485 102.2409 257.8749 15.08834287 97206,6917.898,95.438,540.79,538.736,0.0
51741.0,STARLINK-3520,PAYLOAD,2023-11-24 13:26:12,15.08835363,0.0001383,53.2181,112.6622,103.8133,256.3013,-4.545e-05,-1.011e-05,0.0,0 STARLINK-3520,1 51741U 22016AD  23328.55986445 -.00001011  00000-0 -45450-4 0  9990,2 51741  53.2181 112.6622 0001383 103.8133 256.3013 15.08835363 97338,6917.895,95.438,540.716,538.803,0.0
